{"type": "FeatureCollection", "features": [ {"type": "Feature", "properties": {"norad_id": 35469, "name": "COSMOS 2251 DEB", "group": "cosmos-2251-debris", "lat": -47.785996581137724, "lon": -10.97675268407761, "alt_km": 779.2136254558782, "timestamp": "2025-12-21T11:31:43.255722+00:00", "meta": {"OBJECT_NAME": "COSMOS 2251 DEB", "OBJECT_ID": "1993-036ALP", "EPOCH": "2025-12-20T07:36:40.266144", "MEAN_MOTION": 14.4982565, "ECCENTRICITY": 0.00765645, "INCLINATION": 74.0168, "RA_OF_ASC_NODE": 9.6263, "ARG_OF_PERICENTER": 163.1432, "MEAN_ANOMALY": 197.23, "EPHEMERIS_TYPE": 0, "CLASSIFICATION_TYPE": "U", "NORAD_CAT_ID": 35469, "ELEMENT_SET_NO": 999, "REV_AT_EPOCH": 88221, "BSTAR": 6.7527967e-05, "MEAN_MOTION_DOT": 2.41e-06, "MEAN_MOTION_DDOT": 0}, "tle": {"line1": "1 35469U 93036ALP 25354.31713271  .00000241  00000+0  67528-4 0  9990", "line2": "2 35469  74.0168   9.6263 0076564 163.1432 197.2300 14.49825650882216"}}, "geometry": {"type": "Point", "coordinates": [-10.97675268407761, -47.785996581137724]}}, {"type": "Feature", "properties": {"norad_id": 35475, "name": "COSMOS 2251 DEB", "group": "cosmos-2251-debris", "lat": 65.34443090746933, "lon": -172.70381490686535, "alt_km": 667.0428403000542, "timestamp": "2025-12-21T11:31:43.255733+00:00", "meta": {"OBJECT_NAME": "COSMOS 2251 DEB", "OBJECT_ID": "1993-036ALV", "EPOCH": "2025-12-20T04:10:12.186624", "MEAN_MOTION": 14.69875936, "ECCENTRICITY": 0.00202744, "INCLINATION": 74.0213, "RA_OF_ASC_NODE": 151.2034, "ARG_OF_PERICENTER": 223.9843, "MEAN_ANOMALY": 135.9716, "EPHEMERIS_TYPE": 0, "CLASSIFICATION_TYPE": "U", "NORAD_CAT_ID": 35475, "ELEMENT_SET_NO": 999, "REV_AT_EPOCH": 65726, "BSTAR": 0.0012274408, "MEAN_MOTION_DOT": 7.339e-05, "MEAN_MOTION_DDOT": 0}, "tle": {"line1": "1 35475U 93036ALV 25354.17375216  .00007339  00000+0  12274-2 0  9995", "line2": "2 35475  74.0213 151.2034 0020274 223.9843 135.9716 14.69875936657261"}}, "geometry": {"type": "Point", "coordinates": [-172.70381490686535, 65.34443090746933]}}, {"type": "Feature", "properties": {"norad_id": 35476, "name": "COSMOS 2251 DEB", "group": "cosmos-2251-debris", "lat": 68.58943823364017, "lon": 176.62811057786433, "alt_km": 633.8450515207933, "timestamp": "2025-12-21T11:31:43.255743+00:00", "meta": {"OBJECT_NAME": "COSMOS 2251 DEB", "OBJECT_ID": "1993-036ALW", "EPOCH": "2025-12-20T04:26:15.503424", "MEAN_MOTION": 14.75816221, "ECCENTRICITY": 0.0018084, "INCLINATION": 73.9779, "RA_OF_ASC_NODE": 46.2965, "ARG_OF_PERICENTER": 24.5417, "MEAN_ANOMALY": 39.7285, "EPHEMERIS_TYPE": 0, "CLASSIFICATION_TYPE": "U", "NORAD_CAT_ID": 35476, "ELEMENT_SET_NO": 999, "REV_AT_EPOCH": 87997, "BSTAR": 0.00092006008, "MEAN_MOTION_DOT": 6.297e-05, "MEAN_MOTION_DDOT": 0}, "tle": {"line1": "1 35476U 93036ALW 25354.18490166  .00006297  00000+0  92006-3 0  9993", "line2": "2 35476  73.9779  46.2965 0018084  24.5417  39.7285 14.75816221879976"}}, "geometry": {"type": "Point", "coordinates": [176.62811057786433, 68.58943823364017]}}, {"type": "Feature", "properties": {"norad_id": 35580, "name": "COSMOS 2251 DEB", "group": "cosmos-2251-debris", "lat": -16.4502774401961, "lon": -11.2483561717882, "alt_km": 774.1429007134775, "timestamp": "2025-12-21T11:31:43.255753+00:00", "meta": {"OBJECT_NAME": "COSMOS 2251 DEB", "OBJECT_ID": "1993-036ALX", "EPOCH": "2025-12-20T05:05:49.812576", "MEAN_MOTION": 13.83906567, "ECCENTRICITY": 0.028085, "INCLINATION": 73.9006, "RA_OF_ASC_NODE": 166.0156, "ARG_OF_PERICENTER": 169.8095, "MEAN_ANOMALY": 190.8895, "EPHEMERIS_TYPE": 0, "CLASSIFICATION_TYPE": "U", "NORAD_CAT_ID": 35580, "ELEMENT_SET_NO": 999, "REV_AT_EPOCH": 62360, "BSTAR": 0.0014818, "MEAN_MOTION_DOT": 2.208e-05, "MEAN_MOTION_DDOT": 0}, "tle": {"line1": "1 35580U 93036ALX 25354.21238209  .00002208  00000+0  14818-2 0  9993", "line2": "2 35580  73.9006 166.0156 0280850 169.8095 190.8895 13.83906567623609"}}, "geometry": {"type": "Point", "coordinates": [-11.2483561717882, -16.4502774401961]}}, {"type": "Feature", "properties": {"norad_id": 35583, "name": "COSMOS 2251 DEB", "group": "cosmos-2251-debris", "lat": 65.68566139550282, "lon": -122.46540647646594, "alt_km": 1288.310075943432, "timestamp": "2025-12-21T11:31:43.255764+00:00", "meta": {"OBJECT_NAME": "COSMOS 2251 DEB", "OBJECT_ID": "1993-036AMA", "EPOCH": "2025-12-20T06:48:28.606752", "MEAN_MOTION": 13.55347821, "ECCENTRICITY": 0.03851724, "INCLINATION": 73.9159, "RA_OF_ASC_NODE": 199.7899, "ARG_OF_PERICENTER": 222.7536, "MEAN_ANOMALY": 134.3018, "EPHEMERIS_TYPE": 0, "CLASSIFICATION_TYPE": "U", "NORAD_CAT_ID": 35583, "ELEMENT_SET_NO": 999, "REV_AT_EPOCH": 82514, "BSTAR": 0.00063035035, "MEAN_MOTION_DOT": 6.79e-06, "MEAN_MOTION_DDOT": 0}, "tle": {"line1": "1 35583U 93036AMA 25354.28366443  .00000679  00000+0  63035-3 0  9991", "line2": "2 35583  73.9159 199.7899 0385172 222.7536 134.3018 13.55347821825144"}}, "geometry": {"type": "Point", "coordinates": [-122.46540647646594, 65.68566139550282]}}, {"type": "Feature", "properties": {"norad_id": 35585, "name": "COSMOS 2251 DEB", "group": "cosmos-2251-debris", "lat": -58.57953416084884, "lon": -54.250820164409674, "alt_km": 845.7995036489383, "timestamp": "2025-12-21T11:31:43.255775+00:00", "meta": {"OBJECT_NAME": "COSMOS 2251 DEB", "OBJECT_ID": "1993-036AMC", "EPOCH": "2025-12-20T15:30:07.253856", "MEAN_MOTION": 13.75268029, "ECCENTRICITY": 0.0310433, "INCLINATION": 73.9724, "RA_OF_ASC_NODE": 335.2103, "ARG_OF_PERICENTER": 245.9158, "MEAN_ANOMALY": 238.9797, "EPHEMERIS_TYPE": 0, "CLASSIFICATION_TYPE": "U", "NORAD_CAT_ID": 35585, "ELEMENT_SET_NO": 999, "REV_AT_EPOCH": 64172, "BSTAR": 0.00064977, "MEAN_MOTION_DOT": 8.6e-06, "MEAN_MOTION_DDOT": 0}, "tle": {"line1": "1 35585U 93036AMC 25354.64591729  .00000860  00000+0  64977-3 0  9998", "line2": "2 35585  73.9724 335.2103 0310433 245.9158 238.9797 13.75268029641723"}}, "geometry": {"type": "Point", "coordinates": [-54.250820164409674, -58.57953416084884]}}, {"type": "Feature", "properties": {"norad_id": 35586, "name": "COSMOS 2251 DEB", "group": "cosmos-2251-debris", "lat": 63.713413154228576, "lon": 73.01904849030872, "alt_km": 860.7605405843842, "timestamp": "2025-12-21T11:31:43.255785+00:00", "meta": {"OBJECT_NAME": "COSMOS 2251 DEB", "OBJECT_ID": "1993-036AMD", "EPOCH": "2025-12-18T14:35:36.885984", "MEAN_MOTION": 13.5208875, "ECCENTRICITY": 0.04044314, "INCLINATION": 74.0204, "RA_OF_ASC_NODE": 293.076, "ARG_OF_PERICENTER": 167.1463, "MEAN_ANOMALY": 11.7227, "EPHEMERIS_TYPE": 0, "CLASSIFICATION_TYPE": "U", "NORAD_CAT_ID": 35586, "ELEMENT_SET_NO": 999, "REV_AT_EPOCH": 60461, "BSTAR": 0.00023975249, "MEAN_MOTION_DOT": 2.44e-06, "MEAN_MOTION_DDOT": 0}, "tle": {"line1": "1 35586U 93036AMD 25352.60806581  .00000244  00000+0  23975-3 0  9997", "line2": "2 35586  74.0204 293.0760 0404431 167.1463  11.7227 13.52088750604613"}}, "geometry": {"type": "Point", "coordinates": [73.01904849030872, 63.713413154228576]}}, {"type": "Feature", "properties": {"norad_id": 35587, "name": "COSMOS 2251 DEB", "group": "cosmos-2251-debris", "lat": 40.833133973513675, "lon": -152.9492931379762, "alt_km": 651.8587152069786, "timestamp": "2025-12-21T11:31:43.255796+00:00", "meta": {"OBJECT_NAME": "COSMOS 2251 DEB", "OBJECT_ID": "1993-036AME", "EPOCH": "2025-12-19T21:22:17.268960", "MEAN_MOTION": 14.71544302, "ECCENTRICITY": 0.0102392, "INCLINATION": 74.0049, "RA_OF_ASC_NODE": 44.4984, "ARG_OF_PERICENTER": 230.5816, "MEAN_ANOMALY": 128.6259, "EPHEMERIS_TYPE": 0, "CLASSIFICATION_TYPE": "U", "NORAD_CAT_ID": 35587, "ELEMENT_SET_NO": 999, "REV_AT_EPOCH": 66451, "BSTAR": 0.00018067, "MEAN_MOTION_DOT": 1.181e-05, "MEAN_MOTION_DDOT": 0}, "tle": {"line1": "1 35587U 93036AME 25353.89047765  .00001181  00000+0  18067-3 0  9998", "line2": "2 35587  74.0049  44.4984 0102392 230.5816 128.6259 14.71544302664515"}}, "geometry": {"type": "Point", "coordinates": [-152.9492931379762, 40.833133973513675]}}, {"type": "Feature", "properties": {"norad_id": 35593, "name": "COSMOS 2251 DEB", "group": "cosmos-2251-debris", "lat": -73.58982482392685, "lon": 168.35187810008532, "alt_km": 739.2675318104457, "timestamp": "2025-12-21T11:31:43.255806+00:00", "meta": {"OBJECT_NAME": "COSMOS 2251 DEB", "OBJECT_ID": "1993-036AML", "EPOCH": "2025-12-20T03:57:49.308192", "MEAN_MOTION": 14.2562311, "ECCENTRICITY": 0.01050867, "INCLINATION": 74.0862, "RA_OF_ASC_NODE": 275.0836, "ARG_OF_PERICENTER": 279.9354, "MEAN_ANOMALY": 78.9945, "EPHEMERIS_TYPE": 0, "CLASSIFICATION_TYPE": "U", "NORAD_CAT_ID": 35593, "ELEMENT_SET_NO": 999, "REV_AT_EPOCH": 85171, "BSTAR": 0.0005338344, "MEAN_MOTION_DOT": 1.314e-05, "MEAN_MOTION_DDOT": 0}, "tle": {"line1": "1 35593U 93036AML 25354.16515403  .00001314  00000+0  53383-3 0  9993", "line2": "2 35593  74.0862 275.0836 0105086 279.9354  78.9945 14.25623110851713"}}, "geometry": {"type": "Point", "coordinates": [168.35187810008532, -73.58982482392685]}}, {"type": "Feature", "properties": {"norad_id": 35594, "name": "COSMOS 2251 DEB", "group": "cosmos-2251-debris", "lat": 12.20385448105523, "lon": 92.46086171831159, "alt_km": 624.922700534069, "timestamp": "2025-12-21T11:31:43.255817+00:00", "meta": {"OBJECT_NAME": "COSMOS 2251 DEB", "OBJECT_ID": "1993-036AMM", "EPOCH": "2025-12-20T16:06:37.918080", "MEAN_MOTION": 14.88150247, "ECCENTRICITY": 0.00294073, "INCLINATION": 73.8062, "RA_OF_ASC_NODE": 90.4935, "ARG_OF_PERICENTER": 202.9208, "MEAN_ANOMALY": 157.0661, "EPHEMERIS_TYPE": 0, "CLASSIFICATION_TYPE": "U", "NORAD_CAT_ID": 35594, "ELEMENT_SET_NO": 999, "REV_AT_EPOCH": 88303, "BSTAR": 0.0010059598, "MEAN_MOTION_DOT": 9.316e-05, "MEAN_MOTION_DDOT": 0}, "tle": {"line1": "1 35594U 93036AMM 25354.67127220  .00009316  00000+0  10060-2 0  9990", "line2": "2 35594  73.8062  90.4935 0029407 202.9208 157.0661 14.88150247883037"}}, "geometry": {"type": "Point", "coordinates": [92.46086171831159, 12.20385448105523]}}]}